<?xml version="1.0" encoding="UTF-8"?>
<gpx version="1.1" creator="RandoTracker" xmlns="http://www.topografix.com/GPX/1/1">
  <metadata>
    <name>Niveau 3 - Traversée des Crêtes (18 km)</name>
  </metadata>
  <trk>
    <name>Niveau 3 - Traversée des Crêtes (18 km)</name>
    <trkseg>
      <trkpt lat="45.937144" lon="6.185000"><ele>450.0</ele></trkpt>
      <trkpt lat="45.937646" lon="6.186511"><ele>475.7</ele></trkpt>
      <trkpt lat="45.938021" lon="6.188056"><ele>503.0</ele></trkpt>
      <trkpt lat="45.938287" lon="6.189623"><ele>531.9</ele></trkpt>
      <trkpt lat="45.938461" lon="6.191205"><ele>562.1</ele></trkpt>
      <trkpt lat="45.938562" lon="6.192797"><ele>593.4</ele></trkpt>
      <trkpt lat="45.938606" lon="6.194396"><ele>625.7</ele></trkpt>
      <trkpt lat="45.938609" lon="6.196002"><ele>658.7</ele></trkpt>
      <trkpt lat="45.938580" lon="6.197617"><ele>692.2</ele></trkpt>
      <trkpt lat="45.938530" lon="6.199243"><ele>726.1</ele></trkpt>
      <trkpt lat="45.938461" lon="6.200882"><ele>760.1</ele></trkpt>
      <trkpt lat="45.938376" lon="6.202536"><ele>794.1</ele></trkpt>
      <trkpt lat="45.938271" lon="6.204204"><ele>827.9</ele></trkpt>
      <trkpt lat="45.938140" lon="6.205883"><ele>861.3</ele></trkpt>
      <trkpt lat="45.937977" lon="6.207569"><ele>894.2</ele></trkpt>
      <trkpt lat="45.937769" lon="6.209255"><ele>926.5</ele></trkpt>
      <trkpt lat="45.937507" lon="6.210929"><ele>957.9</ele></trkpt>
      <trkpt lat="45.937177" lon="6.212578"><ele>988.4</ele></trkpt>
      <trkpt lat="45.936770" lon="6.214187"><ele>1017.8</ele></trkpt>
      <trkpt lat="45.936276" lon="6.215739"><ele>1046.1</ele></trkpt>
      <trkpt lat="45.935685" lon="6.217215"><ele>1073.1</ele></trkpt>
      <trkpt lat="45.934993" lon="6.218598"><ele>1098.8</ele></trkpt>
      <trkpt lat="45.934198" lon="6.219870"><ele>1123.1</ele></trkpt>
      <trkpt lat="45.933300" lon="6.221014"><ele>1146.0</ele></trkpt>
      <trkpt lat="45.932304" lon="6.222018"><ele>1167.3</ele></trkpt>
      <trkpt lat="45.931215" lon="6.222871"><ele>1187.2</ele></trkpt>
      <trkpt lat="45.930045" lon="6.223568"><ele>1205.6</ele></trkpt>
      <trkpt lat="45.928806" lon="6.224106"><ele>1222.4</ele></trkpt>
      <trkpt lat="45.927511" lon="6.224487"><ele>1237.7</ele></trkpt>
      <trkpt lat="45.926176" lon="6.224719"><ele>1251.5</ele></trkpt>
      <trkpt lat="45.924818" lon="6.224813"><ele>1263.9</ele></trkpt>
      <trkpt lat="45.923452" lon="6.224783"><ele>1274.8</ele></trkpt>
      <trkpt lat="45.922092" lon="6.224646"><ele>1284.4</ele></trkpt>
      <trkpt lat="45.920752" lon="6.224423"><ele>1292.7</ele></trkpt>
      <trkpt lat="45.919445" lon="6.224133"><ele>1299.7</ele></trkpt>
      <trkpt lat="45.918178" lon="6.223797"><ele>1305.6</ele></trkpt>
      <trkpt lat="45.916958" lon="6.223434"><ele>1310.5</ele></trkpt>
      <trkpt lat="45.915790" lon="6.223062"><ele>1314.3</ele></trkpt>
      <trkpt lat="45.914675" lon="6.222693"><ele>1317.2</ele></trkpt>
      <trkpt lat="45.913612" lon="6.222338"><ele>1319.3</ele></trkpt>
      <trkpt lat="45.912598" lon="6.222002"><ele>1320.8</ele></trkpt>
      <trkpt lat="45.911629" lon="6.221687"><ele>1321.5</ele></trkpt>
      <trkpt lat="45.910700" lon="6.221388"><ele>1321.8</ele></trkpt>
      <trkpt lat="45.909804" lon="6.221098"><ele>1321.6</ele></trkpt>
      <trkpt lat="45.908938" lon="6.220804"><ele>1321.1</ele></trkpt>
      <trkpt lat="45.908095" lon="6.220491"><ele>1320.3</ele></trkpt>
      <trkpt lat="45.907272" lon="6.220144"><ele>1319.3</ele></trkpt>
      <trkpt lat="45.906466" lon="6.219743"><ele>1318.2</ele></trkpt>
      <trkpt lat="45.905678" lon="6.219273"><ele>1317.1</ele></trkpt>
      <trkpt lat="45.904907" lon="6.218719"><ele>1316.0</ele></trkpt>
      <trkpt lat="45.904156" lon="6.218068"><ele>1315.0</ele></trkpt>
      <trkpt lat="45.903429" lon="6.217314"><ele>1314.1</ele></trkpt>
      <trkpt lat="45.902731" lon="6.216455"><ele>1313.4</ele></trkpt>
      <trkpt lat="45.902066" lon="6.215495"><ele>1312.9</ele></trkpt>
      <trkpt lat="45.901441" lon="6.214446"><ele>1312.6</ele></trkpt>
      <trkpt lat="45.900859" lon="6.213325"><ele>1312.5</ele></trkpt>
      <trkpt lat="45.900322" lon="6.212156"><ele>1312.7</ele></trkpt>
      <trkpt lat="45.899832" lon="6.210972"><ele>1313.1</ele></trkpt>
      <trkpt lat="45.899386" lon="6.209806"><ele>1313.7</ele></trkpt>
      <trkpt lat="45.898979" lon="6.208699"><ele>1314.5</ele></trkpt>
      <trkpt lat="45.898603" lon="6.207692"><ele>1315.5</ele></trkpt>
      <trkpt lat="45.898247" lon="6.206827"><ele>1316.5</ele></trkpt>
      <trkpt lat="45.897894" lon="6.206147"><ele>1317.6</ele></trkpt>
      <trkpt lat="45.897527" lon="6.205688"><ele>1318.8</ele></trkpt>
      <trkpt lat="45.897126" lon="6.205484"><ele>1319.8</ele></trkpt>
      <trkpt lat="45.896666" lon="6.205562"><ele>1320.7</ele></trkpt>
      <trkpt lat="45.896126" lon="6.205939"><ele>1321.4</ele></trkpt>
      <trkpt lat="45.895482" lon="6.206624"><ele>1321.7</ele></trkpt>
      <trkpt lat="45.894711" lon="6.207615"><ele>1321.7</ele></trkpt>
      <trkpt lat="45.893794" lon="6.208902"><ele>1321.2</ele></trkpt>
      <trkpt lat="45.892712" lon="6.210460"><ele>1320.1</ele></trkpt>
      <trkpt lat="45.891455" lon="6.212256"><ele>1318.4</ele></trkpt>
      <trkpt lat="45.890014" lon="6.214249"><ele>1315.9</ele></trkpt>
      <trkpt lat="45.888389" lon="6.216387"><ele>1312.5</ele></trkpt>
      <trkpt lat="45.886585" lon="6.218612"><ele>1308.2</ele></trkpt>
      <trkpt lat="45.884614" lon="6.220863"><ele>1302.8</ele></trkpt>
      <trkpt lat="45.882494" lon="6.223075"><ele>1296.4</ele></trkpt>
      <trkpt lat="45.880251" lon="6.225183"><ele>1288.7</ele></trkpt>
      <trkpt lat="45.877917" lon="6.227122"><ele>1279.8</ele></trkpt>
      <trkpt lat="45.875527" lon="6.228835"><ele>1269.5</ele></trkpt>
      <trkpt lat="45.873123" lon="6.230268"><ele>1257.9</ele></trkpt>
      <trkpt lat="45.870746" lon="6.231376"><ele>1244.8</ele></trkpt>
      <trkpt lat="45.868441" lon="6.232123"><ele>1230.2</ele></trkpt>
      <trkpt lat="45.866254" lon="6.232484"><ele>1214.2</ele></trkpt>
      <trkpt lat="45.864225" lon="6.232445"><ele>1196.6</ele></trkpt>
      <trkpt lat="45.862395" lon="6.232003"><ele>1177.5</ele></trkpt>
      <trkpt lat="45.860798" lon="6.231167"><ele>1156.8</ele></trkpt>
      <trkpt lat="45.859462" lon="6.229957"><ele>1134.7</ele></trkpt>
      <trkpt lat="45.858411" lon="6.228400"><ele>1111.1</ele></trkpt>
      <trkpt lat="45.857658" lon="6.226535"><ele>1086.1</ele></trkpt>
      <trkpt lat="45.857210" lon="6.224404"><ele>1059.8</ele></trkpt>
      <trkpt lat="45.857065" lon="6.222057"><ele>1032.1</ele></trkpt>
      <trkpt lat="45.857212" lon="6.219545"><ele>1003.2</ele></trkpt>
      <trkpt lat="45.857635" lon="6.216920"><ele>973.3</ele></trkpt>
      <trkpt lat="45.858309" lon="6.214234"><ele>942.3</ele></trkpt>
      <trkpt lat="45.859204" lon="6.211535"><ele>910.5</ele></trkpt>
      <trkpt lat="45.860285" lon="6.208867"><ele>877.9</ele></trkpt>
      <trkpt lat="45.861514" lon="6.206269"><ele>844.7</ele></trkpt>
      <trkpt lat="45.862852" lon="6.203773"><ele>811.0</ele></trkpt>
      <trkpt lat="45.864259" lon="6.201404"><ele>777.1</ele></trkpt>
      <trkpt lat="45.865696" lon="6.199180"><ele>743.1</ele></trkpt>
      <trkpt lat="45.867127" lon="6.197112"><ele>709.1</ele></trkpt>
      <trkpt lat="45.868519" lon="6.195201"><ele>675.4</ele></trkpt>
      <trkpt lat="45.869845" lon="6.193447"><ele>642.1</ele></trkpt>
      <trkpt lat="45.871082" lon="6.191841"><ele>609.5</ele></trkpt>
      <trkpt lat="45.872215" lon="6.190370"><ele>577.7</ele></trkpt>
      <trkpt lat="45.873233" lon="6.189020"><ele>546.9</ele></trkpt>
      <trkpt lat="45.874132" lon="6.187774"><ele>517.3</ele></trkpt>
      <trkpt lat="45.874914" lon="6.186614"><ele>489.1</ele></trkpt>
      <trkpt lat="45.875585" lon="6.185524"><ele>462.6</ele></trkpt>
      <trkpt lat="45.876157" lon="6.184488"><ele>450.0</ele></trkpt>
      <trkpt lat="45.876644" lon="6.183493"><ele>450.0</ele></trkpt>
      <trkpt lat="45.877063" lon="6.182529"><ele>450.0</ele></trkpt>
      <trkpt lat="45.877431" lon="6.181588"><ele>450.0</ele></trkpt>
      <trkpt lat="45.877768" lon="6.180666"><ele>450.0</ele></trkpt>
      <trkpt lat="45.878090" lon="6.179762"><ele>450.0</ele></trkpt>
      <trkpt lat="45.878413" lon="6.178876"><ele>450.0</ele></trkpt>
      <trkpt lat="45.878749" lon="6.178012"><ele>450.0</ele></trkpt>
      <trkpt lat="45.879109" lon="6.177173"><ele>450.0</ele></trkpt>
      <trkpt lat="45.879498" lon="6.176363"><ele>450.0</ele></trkpt>
      <trkpt lat="45.879918" lon="6.175587"><ele>450.0</ele></trkpt>
      <trkpt lat="45.880369" lon="6.174847"><ele>450.0</ele></trkpt>
      <trkpt lat="45.880845" lon="6.174144"><ele>450.0</ele></trkpt>
      <trkpt lat="45.881340" lon="6.173476"><ele>450.0</ele></trkpt>
      <trkpt lat="45.881843" lon="6.172838"><ele>450.0</ele></trkpt>
      <trkpt lat="45.882343" lon="6.172224"><ele>450.0</ele></trkpt>
      <trkpt lat="45.882827" lon="6.171623"><ele>450.0</ele></trkpt>
      <trkpt lat="45.883284" lon="6.171023"><ele>450.0</ele></trkpt>
      <trkpt lat="45.883702" lon="6.170410"><ele>457.2</ele></trkpt>
      <trkpt lat="45.884071" lon="6.169767"><ele>488.1</ele></trkpt>
      <trkpt lat="45.884385" lon="6.169078"><ele>521.9</ele></trkpt>
      <trkpt lat="45.884637" lon="6.168326"><ele>558.5</ele></trkpt>
      <trkpt lat="45.884828" lon="6.167497"><ele>597.8</ele></trkpt>
      <trkpt lat="45.884957" lon="6.166577"><ele>639.6</ele></trkpt>
      <trkpt lat="45.885030" lon="6.165557"><ele>683.7</ele></trkpt>
      <trkpt lat="45.885055" lon="6.164429"><ele>729.9</ele></trkpt>
      <trkpt lat="45.885041" lon="6.163191"><ele>778.1</ele></trkpt>
      <trkpt lat="45.885002" lon="6.161845"><ele>828.0</ele></trkpt>
      <trkpt lat="45.884950" lon="6.160397"><ele>879.4</ele></trkpt>
      <trkpt lat="45.884901" lon="6.158858"><ele>932.0</ele></trkpt>
      <trkpt lat="45.884869" lon="6.157241"><ele>985.6</ele></trkpt>
      <trkpt lat="45.884869" lon="6.155564"><ele>1039.9</ele></trkpt>
      <trkpt lat="45.884914" lon="6.153848"><ele>1094.6</ele></trkpt>
      <trkpt lat="45.885016" lon="6.152113"><ele>1149.5</ele></trkpt>
      <trkpt lat="45.885183" lon="6.150382"><ele>1204.3</ele></trkpt>
      <trkpt lat="45.885422" lon="6.148674"><ele>1258.8</ele></trkpt>
      <trkpt lat="45.885737" lon="6.147011"><ele>1312.5</ele></trkpt>
      <trkpt lat="45.886130" lon="6.145407"><ele>1365.3</ele></trkpt>
      <trkpt lat="45.886599" lon="6.143877"><ele>1416.9</ele></trkpt>
      <trkpt lat="45.887142" lon="6.142428"><ele>1467.0</ele></trkpt>
      <trkpt lat="45.887754" lon="6.141066"><ele>1515.3</ele></trkpt>
      <trkpt lat="45.888428" lon="6.139789"><ele>1561.6</ele></trkpt>
      <trkpt lat="45.889158" lon="6.138592"><ele>1600.0</ele></trkpt>
      <trkpt lat="45.889936" lon="6.137466"><ele>1600.0</ele></trkpt>
      <trkpt lat="45.890757" lon="6.136398"><ele>1600.0</ele></trkpt>
      <trkpt lat="45.891613" lon="6.135373"><ele>1600.0</ele></trkpt>
      <trkpt lat="45.892502" lon="6.134374"><ele>1600.0</ele></trkpt>
      <trkpt lat="45.893419" lon="6.133384"><ele>1600.0</ele></trkpt>
      <trkpt lat="45.894363" lon="6.132387"><ele>1600.0</ele></trkpt>
      <trkpt lat="45.895336" lon="6.131371"><ele>1600.0</ele></trkpt>
      <trkpt lat="45.896338" lon="6.130326"><ele>1600.0</ele></trkpt>
      <trkpt lat="45.897372" lon="6.129248"><ele>1600.0</ele></trkpt>
      <trkpt lat="45.898442" lon="6.128139"><ele>1600.0</ele></trkpt>
      <trkpt lat="45.899552" lon="6.127006"><ele>1600.0</ele></trkpt>
      <trkpt lat="45.900705" lon="6.125863"><ele>1600.0</ele></trkpt>
      <trkpt lat="45.901903" lon="6.124733"><ele>1600.0</ele></trkpt>
      <trkpt lat="45.903146" lon="6.123643"><ele>1600.0</ele></trkpt>
      <trkpt lat="45.904432" lon="6.122626"><ele>1600.0</ele></trkpt>
      <trkpt lat="45.905756" lon="6.121720"><ele>1600.0</ele></trkpt>
      <trkpt lat="45.907111" lon="6.120964"><ele>1600.0</ele></trkpt>
      <trkpt lat="45.908484" lon="6.120403"><ele>1600.0</ele></trkpt>
      <trkpt lat="45.909861" lon="6.120076"><ele>1600.0</ele></trkpt>
      <trkpt lat="45.911223" lon="6.120023"><ele>1600.0</ele></trkpt>
      <trkpt lat="45.912550" lon="6.120280"><ele>1600.0</ele></trkpt>
      <trkpt lat="45.913819" lon="6.120877"><ele>1600.0</ele></trkpt>
      <trkpt lat="45.915004" lon="6.121834"><ele>1600.0</ele></trkpt>
      <trkpt lat="45.916082" lon="6.123166"><ele>1600.0</ele></trkpt>
      <trkpt lat="45.917027" lon="6.124874"><ele>1583.9</ele></trkpt>
      <trkpt lat="45.917817" lon="6.126953"><ele>1538.7</ele></trkpt>
      <trkpt lat="45.918432" lon="6.129382"><ele>1491.4</ele></trkpt>
      <trkpt lat="45.918856" lon="6.132135"><ele>1442.1</ele></trkpt>
      <trkpt lat="45.919078" lon="6.135171"><ele>1391.3</ele></trkpt>
      <trkpt lat="45.919091" lon="6.138442"><ele>1339.0</ele></trkpt>
      <trkpt lat="45.918898" lon="6.141894"><ele>1285.7</ele></trkpt>
      <trkpt lat="45.918504" lon="6.145465"><ele>1231.6</ele></trkpt>
      <trkpt lat="45.917925" lon="6.149091"><ele>1177.0</ele></trkpt>
      <trkpt lat="45.917181" lon="6.152705"><ele>1122.1</ele></trkpt>
      <trkpt lat="45.916300" lon="6.156241"><ele>1067.2</ele></trkpt>
      <trkpt lat="45.915314" lon="6.159637"><ele>1012.7</ele></trkpt>
      <trkpt lat="45.914260" lon="6.162835"><ele>958.7</ele></trkpt>
      <trkpt lat="45.913180" lon="6.165784"><ele>905.6</ele></trkpt>
      <trkpt lat="45.912116" lon="6.168443"><ele>853.5</ele></trkpt>
      <trkpt lat="45.911112" lon="6.170778"><ele>802.9</ele></trkpt>
      <trkpt lat="45.910210" lon="6.172771"><ele>753.8</ele></trkpt>
      <trkpt lat="45.909450" lon="6.174409"><ele>706.6</ele></trkpt>
      <trkpt lat="45.908868" lon="6.175695"><ele>661.3</ele></trkpt>
      <trkpt lat="45.908496" lon="6.176642"><ele>618.4</ele></trkpt>
      <trkpt lat="45.908358" lon="6.177271"><ele>577.8</ele></trkpt>
      <trkpt lat="45.908471" lon="6.177616"><ele>539.8</ele></trkpt>
      <trkpt lat="45.908846" lon="6.177713"><ele>504.6</ele></trkpt>
      <trkpt lat="45.909482" lon="6.177609"><ele>472.3</ele></trkpt>
      <trkpt lat="45.910375" lon="6.177351"><ele>450.0</ele></trkpt>
      <trkpt lat="45.911508" lon="6.176990"><ele>450.0</ele></trkpt>
      <trkpt lat="45.912861" lon="6.176575"><ele>450.0</ele></trkpt>
      <trkpt lat="45.914406" lon="6.176157"><ele>450.0</ele></trkpt>
      <trkpt lat="45.916109" lon="6.175778"><ele>450.0</ele></trkpt>
      <trkpt lat="45.917933" lon="6.175479"><ele>450.0</ele></trkpt>
      <trkpt lat="45.919838" lon="6.175294"><ele>450.0</ele></trkpt>
      <trkpt lat="45.921785" lon="6.175248"><ele>450.0</ele></trkpt>
      <trkpt lat="45.923733" lon="6.175362"><ele>450.0</ele></trkpt>
      <trkpt lat="45.925644" lon="6.175647"><ele>450.0</ele></trkpt>
      <trkpt lat="45.927484" lon="6.176108"><ele>450.0</ele></trkpt>
      <trkpt lat="45.929222" lon="6.176744"><ele>450.0</ele></trkpt>
      <trkpt lat="45.930832" lon="6.177547"><ele>450.0</ele></trkpt>
      <trkpt lat="45.932295" lon="6.178504"><ele>450.0</ele></trkpt>
      <trkpt lat="45.933597" lon="6.179601"><ele>450.0</ele></trkpt>
      <trkpt lat="45.934732" lon="6.180818"><ele>450.0</ele></trkpt>
      <trkpt lat="45.935698" lon="6.182136"><ele>450.0</ele></trkpt>
      <trkpt lat="45.936499" lon="6.183536"><ele>450.0</ele></trkpt>
      <trkpt lat="45.937144" lon="6.185000"><ele>450.0</ele></trkpt>
    </trkseg>
  </trk>
</gpx>