<?xml version="1.0" encoding="UTF-8"?>
<gpx version="1.1" creator="RandoTracker" xmlns="http://www.topografix.com/GPX/1/1">
  <metadata>
    <name>Niveau 2 - Balcon Panoramique (12 km)</name>
  </metadata>
  <trk>
    <name>Niveau 2 - Balcon Panoramique (12 km)</name>
    <trkseg>
      <trkpt lat="45.919387" lon="6.170000"><ele>450.0</ele></trkpt>
      <trkpt lat="45.919586" lon="6.171430"><ele>469.3</ele></trkpt>
      <trkpt lat="45.919624" lon="6.172870"><ele>490.4</ele></trkpt>
      <trkpt lat="45.919543" lon="6.174302"><ele>513.0</ele></trkpt>
      <trkpt lat="45.919385" lon="6.175722"><ele>536.6</ele></trkpt>
      <trkpt lat="45.919185" lon="6.177130"><ele>561.1</ele></trkpt>
      <trkpt lat="45.918970" lon="6.178534"><ele>586.1</ele></trkpt>
      <trkpt lat="45.918756" lon="6.179942"><ele>611.4</ele></trkpt>
      <trkpt lat="45.918548" lon="6.181364"><ele>636.5</ele></trkpt>
      <trkpt lat="45.918338" lon="6.182802"><ele>661.3</ele></trkpt>
      <trkpt lat="45.918111" lon="6.184252"><ele>685.4</ele></trkpt>
      <trkpt lat="45.917845" lon="6.185703"><ele>708.8</ele></trkpt>
      <trkpt lat="45.917516" lon="6.187132"><ele>731.1</ele></trkpt>
      <trkpt lat="45.917100" lon="6.188513"><ele>752.1</ele></trkpt>
      <trkpt lat="45.916579" lon="6.189814"><ele>771.8</ele></trkpt>
      <trkpt lat="45.915942" lon="6.191003"><ele>790.0</ele></trkpt>
      <trkpt lat="45.915183" lon="6.192049"><ele>806.7</ele></trkpt>
      <trkpt lat="45.914311" lon="6.192931"><ele>821.7</ele></trkpt>
      <trkpt lat="45.913339" lon="6.193634"><ele>835.0</ele></trkpt>
      <trkpt lat="45.912289" lon="6.194157"><ele>846.7</ele></trkpt>
      <trkpt lat="45.911187" lon="6.194512"><ele>856.8</ele></trkpt>
      <trkpt lat="45.910061" lon="6.194718"><ele>865.3</ele></trkpt>
      <trkpt lat="45.908938" lon="6.194809"><ele>872.3</ele></trkpt>
      <trkpt lat="45.907840" lon="6.194818"><ele>877.9</ele></trkpt>
      <trkpt lat="45.906784" lon="6.194784"><ele>882.3</ele></trkpt>
      <trkpt lat="45.905780" lon="6.194740"><ele>885.5</ele></trkpt>
      <trkpt lat="45.904831" lon="6.194710"><ele>887.6</ele></trkpt>
      <trkpt lat="45.903933" lon="6.194708"><ele>889.0</ele></trkpt>
      <trkpt lat="45.903077" lon="6.194733"><ele>889.6</ele></trkpt>
      <trkpt lat="45.902252" lon="6.194773"><ele>889.6</ele></trkpt>
      <trkpt lat="45.901447" lon="6.194798"><ele>889.3</ele></trkpt>
      <trkpt lat="45.900652" lon="6.194774"><ele>888.6</ele></trkpt>
      <trkpt lat="45.899862" lon="6.194657"><ele>887.9</ele></trkpt>
      <trkpt lat="45.899077" lon="6.194409"><ele>887.0</ele></trkpt>
      <trkpt lat="45.898303" lon="6.193993"><ele>886.3</ele></trkpt>
      <trkpt lat="45.897549" lon="6.193390"><ele>885.6</ele></trkpt>
      <trkpt lat="45.896830" lon="6.192595"><ele>885.2</ele></trkpt>
      <trkpt lat="45.896159" lon="6.191625"><ele>885.0</ele></trkpt>
      <trkpt lat="45.895548" lon="6.190517"><ele>885.1</ele></trkpt>
      <trkpt lat="45.895005" lon="6.189329"><ele>885.4</ele></trkpt>
      <trkpt lat="45.894530" lon="6.188137"><ele>885.9</ele></trkpt>
      <trkpt lat="45.894110" lon="6.187027"><ele>886.6</ele></trkpt>
      <trkpt lat="45.893727" lon="6.186089"><ele>887.4</ele></trkpt>
      <trkpt lat="45.893347" lon="6.185410"><ele>888.3</ele></trkpt>
      <trkpt lat="45.892933" lon="6.185062"><ele>889.0</ele></trkpt>
      <trkpt lat="45.892438" lon="6.185099"><ele>889.5</ele></trkpt>
      <trkpt lat="45.891816" lon="6.185547"><ele>889.7</ele></trkpt>
      <trkpt lat="45.891023" lon="6.186403"><ele>889.4</ele></trkpt>
      <trkpt lat="45.890023" lon="6.187631"><ele>888.4</ele></trkpt>
      <trkpt lat="45.888792" lon="6.189162"><ele>886.7</ele></trkpt>
      <trkpt lat="45.887325" lon="6.190905"><ele>884.0</ele></trkpt>
      <trkpt lat="45.885633" lon="6.192745"><ele>880.2</ele></trkpt>
      <trkpt lat="45.883747" lon="6.194558"><ele>875.3</ele></trkpt>
      <trkpt lat="45.881718" lon="6.196215"><ele>869.0</ele></trkpt>
      <trkpt lat="45.879613" lon="6.197597"><ele>861.2</ele></trkpt>
      <trkpt lat="45.877512" lon="6.198602"><ele>852.0</ele></trkpt>
      <trkpt lat="45.875498" lon="6.199149"><ele>841.1</ele></trkpt>
      <trkpt lat="45.873658" lon="6.199192"><ele>828.6</ele></trkpt>
      <trkpt lat="45.872071" lon="6.198713"><ele>814.4</ele></trkpt>
      <trkpt lat="45.870803" lon="6.197730"><ele>798.6</ele></trkpt>
      <trkpt lat="45.869903" lon="6.196289"><ele>781.1</ele></trkpt>
      <trkpt lat="45.869396" lon="6.194463"><ele>762.2</ele></trkpt>
      <trkpt lat="45.869286" lon="6.192341"><ele>741.8</ele></trkpt>
      <trkpt lat="45.869551" lon="6.190024"><ele>720.1</ele></trkpt>
      <trkpt lat="45.870149" lon="6.187613"><ele>697.2</ele></trkpt>
      <trkpt lat="45.871020" lon="6.185201"><ele>673.4</ele></trkpt>
      <trkpt lat="45.872089" lon="6.182871"><ele>648.9</ele></trkpt>
      <trkpt lat="45.873277" lon="6.180685"><ele>624.0</ele></trkpt>
      <trkpt lat="45.874504" lon="6.178685"><ele>598.7</ele></trkpt>
      <trkpt lat="45.875697" lon="6.176890"><ele>573.6</ele></trkpt>
      <trkpt lat="45.876795" lon="6.175300"><ele>548.8</ele></trkpt>
      <trkpt lat="45.877750" lon="6.173898"><ele>524.7</ele></trkpt>
      <trkpt lat="45.878537" lon="6.172655"><ele>501.5</ele></trkpt>
      <trkpt lat="45.879145" lon="6.171534"><ele>479.7</ele></trkpt>
      <trkpt lat="45.879585" lon="6.170497"><ele>459.4</ele></trkpt>
      <trkpt lat="45.879879" lon="6.169512"><ele>450.0</ele></trkpt>
      <trkpt lat="45.880062" lon="6.168550"><ele>450.0</ele></trkpt>
      <trkpt lat="45.880176" lon="6.167594"><ele>450.0</ele></trkpt>
      <trkpt lat="45.880262" lon="6.166638"><ele>450.0</ele></trkpt>
      <trkpt lat="45.880360" lon="6.165684"><ele>450.0</ele></trkpt>
      <trkpt lat="45.880500" lon="6.164740"><ele>450.0</ele></trkpt>
      <trkpt lat="45.880703" lon="6.163820"><ele>450.0</ele></trkpt>
      <trkpt lat="45.880978" lon="6.162937"><ele>450.0</ele></trkpt>
      <trkpt lat="45.881324" lon="6.162100"><ele>450.0</ele></trkpt>
      <trkpt lat="45.881727" lon="6.161315"><ele>450.0</ele></trkpt>
      <trkpt lat="45.882168" lon="6.160576"><ele>450.0</ele></trkpt>
      <trkpt lat="45.882621" lon="6.159871"><ele>450.0</ele></trkpt>
      <trkpt lat="45.883061" lon="6.159179"><ele>451.8</ele></trkpt>
      <trkpt lat="45.883466" lon="6.158475"><ele>474.9</ele></trkpt>
      <trkpt lat="45.883818" lon="6.157728"><ele>501.1</ele></trkpt>
      <trkpt lat="45.884108" lon="6.156912"><ele>530.3</ele></trkpt>
      <trkpt lat="45.884335" lon="6.156003"><ele>562.2</ele></trkpt>
      <trkpt lat="45.884509" lon="6.154986"><ele>596.5</ele></trkpt>
      <trkpt lat="45.884645" lon="6.153856"><ele>632.8</ele></trkpt>
      <trkpt lat="45.884767" lon="6.152622"><ele>670.8</ele></trkpt>
      <trkpt lat="45.884898" lon="6.151302"><ele>710.1</ele></trkpt>
      <trkpt lat="45.885064" lon="6.149926"><ele>750.3</ele></trkpt>
      <trkpt lat="45.885288" lon="6.148532"><ele>790.9</ele></trkpt>
      <trkpt lat="45.885588" lon="6.147157"><ele>831.6</ele></trkpt>
      <trkpt lat="45.885975" lon="6.145841"><ele>871.8</ele></trkpt>
      <trkpt lat="45.886452" lon="6.144615"><ele>911.1</ele></trkpt>
      <trkpt lat="45.887016" lon="6.143501"><ele>949.1</ele></trkpt>
      <trkpt lat="45.887658" lon="6.142508"><ele>985.4</ele></trkpt>
      <trkpt lat="45.888365" lon="6.141630"><ele>1019.4</ele></trkpt>
      <trkpt lat="45.889123" lon="6.140847"><ele>1030.0</ele></trkpt>
      <trkpt lat="45.889918" lon="6.140130"><ele>1030.0</ele></trkpt>
      <trkpt lat="45.890739" lon="6.139439"><ele>1030.0</ele></trkpt>
      <trkpt lat="45.891582" lon="6.138734"><ele>1030.0</ele></trkpt>
      <trkpt lat="45.892446" lon="6.137978"><ele>1030.0</ele></trkpt>
      <trkpt lat="45.893336" lon="6.137142"><ele>1030.0</ele></trkpt>
      <trkpt lat="45.894262" lon="6.136215"><ele>1030.0</ele></trkpt>
      <trkpt lat="45.895234" lon="6.135202"><ele>1030.0</ele></trkpt>
      <trkpt lat="45.896263" lon="6.134131"><ele>1030.0</ele></trkpt>
      <trkpt lat="45.897357" lon="6.133051"><ele>1030.0</ele></trkpt>
      <trkpt lat="45.898515" lon="6.132028"><ele>1030.0</ele></trkpt>
      <trkpt lat="45.899730" lon="6.131143"><ele>1030.0</ele></trkpt>
      <trkpt lat="45.900982" lon="6.130487"><ele>1030.0</ele></trkpt>
      <trkpt lat="45.902243" lon="6.130146"><ele>1030.0</ele></trkpt>
      <trkpt lat="45.903474" lon="6.130201"><ele>1030.0</ele></trkpt>
      <trkpt lat="45.904629" lon="6.130715"><ele>1030.0</ele></trkpt>
      <trkpt lat="45.905660" lon="6.131727"><ele>1030.0</ele></trkpt>
      <trkpt lat="45.906516" lon="6.133248"><ele>1002.7</ele></trkpt>
      <trkpt lat="45.907155" lon="6.135256"><ele>967.5</ele></trkpt>
      <trkpt lat="45.907545" lon="6.137697"><ele>930.3</ele></trkpt>
      <trkpt lat="45.907666" lon="6.140489"><ele>891.6</ele></trkpt>
      <trkpt lat="45.907519" lon="6.143526"><ele>851.7</ele></trkpt>
      <trkpt lat="45.907123" lon="6.146684"><ele>811.3</ele></trkpt>
      <trkpt lat="45.906517" lon="6.149834"><ele>770.6</ele></trkpt>
      <trkpt lat="45.905757" lon="6.152848"><ele>730.1</ele></trkpt>
      <trkpt lat="45.904915" lon="6.155612"><ele>690.3</ele></trkpt>
      <trkpt lat="45.904071" lon="6.158030"><ele>651.6</ele></trkpt>
      <trkpt lat="45.903310" lon="6.160036"><ele>614.4</ele></trkpt>
      <trkpt lat="45.902712" lon="6.161595"><ele>579.1</ele></trkpt>
      <trkpt lat="45.902348" lon="6.162703"><ele>546.0</ele></trkpt>
      <trkpt lat="45.902276" lon="6.163390"><ele>515.4</ele></trkpt>
      <trkpt lat="45.902530" lon="6.163713"><ele>487.6</ele></trkpt>
      <trkpt lat="45.903123" lon="6.163750"><ele>462.9</ele></trkpt>
      <trkpt lat="45.904046" lon="6.163594"><ele>450.0</ele></trkpt>
      <trkpt lat="45.905263" lon="6.163342"><ele>450.0</ele></trkpt>
      <trkpt lat="45.906722" lon="6.163089"><ele>450.0</ele></trkpt>
      <trkpt lat="45.908353" lon="6.162920"><ele>450.0</ele></trkpt>
      <trkpt lat="45.910078" lon="6.162905"><ele>450.0</ele></trkpt>
      <trkpt lat="45.911815" lon="6.163090"><ele>450.0</ele></trkpt>
      <trkpt lat="45.913487" lon="6.163504"><ele>450.0</ele></trkpt>
      <trkpt lat="45.915023" lon="6.164150"><ele>450.0</ele></trkpt>
      <trkpt lat="45.916370" lon="6.165016"><ele>450.0</ele></trkpt>
      <trkpt lat="45.917489" lon="6.166073"><ele>450.0</ele></trkpt>
      <trkpt lat="45.918362" lon="6.167284"><ele>450.0</ele></trkpt>
      <trkpt lat="45.918989" lon="6.168606"><ele>450.0</ele></trkpt>
      <trkpt lat="45.919387" lon="6.170000"><ele>450.0</ele></trkpt>
    </trkseg>
  </trk>
</gpx>